[{"OBJECT_NAME":"STARLINK-3857","OBJECT_ID":"2022-049AV","EPOCH":"2026-03-02T10:57:47.507904","MEAN_MOTION":15.0883994,"ECCENTRICITY":0.00012893,"INCLINATION":53.2161,"RA_OF_ASC_NODE":81.5883,"ARG_OF_PERICENTER":89.3442,"MEAN_ANOMALY":270.7697,"EPHEMERIS_TYPE":0,"CLASSIFICATION_TYPE":"U","NORAD_CAT_ID":52494,"ELEMENT_SET_NO":999,"REV_AT_EPOCH":21130,"BSTAR":1.4089977e-5,"MEAN_MOTION_DOT":-6.4e-7,"MEAN_MOTION_DDOT":0},{"OBJECT_NAME":"STARLINK-3871","OBJECT_ID":"2022-049AX","EPOCH":"2026-03-02T08:38:02.272128","MEAN_MOTION":15.08850051,"ECCENTRICITY":0.00012601,"INCLINATION":53.2173,"RA_OF_ASC_NODE":77.0255,"ARG_OF_PERICENTER":93.4867,"MEAN_ANOMALY":266.6269,"EPHEMERIS_TYPE":0,"CLASSIFICATION_TYPE":"U","NORAD_CAT_ID":52496,"ELEMENT_SET_NO":999,"REV_AT_EPOCH":21135,"BSTAR":0.00015389004,"MEAN_MOTION_DOT":2.163e-5,"MEAN_MOTION_DDOT":0},{"OBJECT_NAME":"STARLINK-3884","OBJECT_ID":"2022-049AY","EPOCH":"2026-03-02T11:08:23.067168","MEAN_MOTION":15.08840415,"ECCENTRICITY":0.00012992,"INCLINATION":53.2167,"RA_OF_ASC_NODE":81.5551,"ARG_OF_PERICENTER":93.4459,"MEAN_ANOMALY":266.6682,"EPHEMERIS_TYPE":0,"CLASSIFICATION_TYPE":"U","NORAD_CAT_ID":52497,"ELEMENT_SET_NO":999,"REV_AT_EPOCH":21130,"BSTAR":4.599043e-5,"MEAN_MOTION_DOT":4.44e-6,"MEAN_MOTION_DDOT":0},{"OBJECT_NAME":"STARLINK-3925","OBJECT_ID":"2022-049AZ","EPOCH":"2026-03-02T07:21:50.877504","MEAN_MOTION":15.08842828,"ECCENTRICITY":0.0001163,"INCLINATION":53.2157,"RA_OF_ASC_NODE":72.2615,"ARG_OF_PERICENTER":88.677,"MEAN_ANOMALY":271.4355,"EPHEMERIS_TYPE":0,"CLASSIFICATION_TYPE":"U","NORAD_CAT_ID":52498,"ELEMENT_SET_NO":999,"REV_AT_EPOCH":21141,"BSTAR":-3.249863e-5,"MEAN_MOTION_DOT":-8.05e-6,"MEAN_MOTION_DDOT":0},{"OBJECT_NAME":"STARLINK-3894","OBJECT_ID":"2022-049BA","EPOCH":"2026-03-02T11:03:03.980736","MEAN_MOTION":15.08872614,"ECCENTRICITY":0.00014777,"INCLINATION":53.2157,"RA_OF_ASC_NODE":81.572,"ARG_OF_PERICENTER":95.7213,"MEAN_ANOMALY":264.3947,"EPHEMERIS_TYPE":0,"CLASSIFICATION_TYPE":"U","NORAD_CAT_ID":52499,"ELEMENT_SET_NO":999,"REV_AT_EPOCH":21130,"BSTAR":-0.00048274194,"MEAN_MOTION_DOT":-7.97e-5,"MEAN_MOTION_DDOT":0},{"OBJECT_NAME":"STARLINK-3866","OBJECT_ID":"2022-049BB","EPOCH":"2026-03-02T07:16:32.655936","MEAN_MOTION":15.08841481,"ECCENTRICITY":0.00013128,"INCLINATION":53.2163,"RA_OF_ASC_NODE":72.2778,"ARG_OF_PERICENTER":86.0953,"MEAN_ANOMALY":274.019,"EPHEMERIS_TYPE":0,"CLASSIFICATION_TYPE":"U","NORAD_CAT_ID":52500,"ELEMENT_SET_NO":999,"REV_AT_EPOCH":21141,"BSTAR":0.00010119337,"MEAN_MOTION_DOT":1.323e-5,"MEAN_MOTION_DDOT":0},{"OBJECT_NAME":"STARLINK-3907","OBJECT_ID":"2022-049BC","EPOCH":"2026-03-02T07:20:29.334048","MEAN_MOTION":15.08839966,"ECCENTRICITY":0.00011866,"INCLINATION":53.2167,"RA_OF_ASC_NODE":82.0663,"ARG_OF_PERICENTER":91.6511,"MEAN_ANOMALY":268.4617,"EPHEMERIS_TYPE":0,"CLASSIFICATION_TYPE":"U","NORAD_CAT_ID":52501,"ELEMENT_SET_NO":999,"REV_AT_EPOCH":21128,"BSTAR":7.9056005e-5,"MEAN_MOTION_DOT":9.71e-6,"MEAN_MOTION_DDOT":0},{"OBJECT_NAME":"STARLINK-3912","OBJECT_ID":"2022-049BD","EPOCH":"2026-03-02T07:11:15.174816","MEAN_MOTION":15.08840776,"ECCENTRICITY":0.00012826,"INCLINATION":53.2169,"RA_OF_ASC_NODE":72.3246,"ARG_OF_PERICENTER":91.4171,"MEAN_ANOMALY":268.6968,"EPHEMERIS_TYPE":0,"CLASSIFICATION_TYPE":"U","NORAD_CAT_ID":52502,"ELEMENT_SET_NO":999,"REV_AT_EPOCH":21141,"BSTAR":2.964075e-5,"MEAN_MOTION_DOT":1.84e-6,"MEAN_MOTION_DDOT":0},{"OBJECT_NAME":"STARLINK-3861","OBJECT_ID":"2022-049BE","EPOCH":"2026-03-02T06:55:19.915680","MEAN_MOTION":15.08840679,"ECCENTRICITY":0.00013102,"INCLINATION":53.2176,"RA_OF_ASC_NODE":72.2313,"ARG_OF_PERICENTER":92.0344,"MEAN_ANOMALY":268.0798,"EPHEMERIS_TYPE":0,"CLASSIFICATION_TYPE":"U","NORAD_CAT_ID":52503,"ELEMENT_SET_NO":999,"REV_AT_EPOCH":21141,"BSTAR":2.9887035e-5,"MEAN_MOTION_DOT":1.88e-6,"MEAN_MOTION_DDOT":0},{"OBJECT_NAME":"STARLINK-3952","OBJECT_ID":"2022-051B","EPOCH":"2026-03-02T20:00:01.999008","MEAN_MOTION":15.37221728,"ECCENTRICITY":0.0001074,"INCLINATION":53.2177,"RA_OF_ASC_NODE":158.1857,"ARG_OF_PERICENTER":85.9937,"MEAN_ANOMALY":126.4544,"EPHEMERIS_TYPE":0,"CLASSIFICATION_TYPE":"U","NORAD_CAT_ID":52534,"ELEMENT_SET_NO":999,"REV_AT_EPOCH":583,"BSTAR":0.0033912,"MEAN_MOTION_DOT":0.00127167,"MEAN_MOTION_DDOT":0},{"OBJECT_NAME":"STARLINK-3958","OBJECT_ID":"2022-051C","EPOCH":"2026-03-02T13:20:55.456224","MEAN_MOTION":15.08671102,"ECCENTRICITY":0.0002145,"INCLINATION":53.2168,"RA_OF_ASC_NODE":161.1462,"ARG_OF_PERICENTER":88.2307,"MEAN_ANOMALY":271.8931,"EPHEMERIS_TYPE":0,"CLASSIFICATION_TYPE":"U","NORAD_CAT_ID":52535,"ELEMENT_SET_NO":999,"REV_AT_EPOCH":21036,"BSTAR":0.0023471,"MEAN_MOTION_DOT":0.00037092,"MEAN_MOTION_DDOT":0},{"OBJECT_NAME":"STARLINK-3964","OBJECT_ID":"2022-051D","EPOCH":"2026-03-02T13:15:33.371712","MEAN_MOTION":15.08850686,"ECCENTRICITY":0.0001048,"INCLINATION":53.2165,"RA_OF_ASC_NODE":161.1616,"ARG_OF_PERICENTER":85.4024,"MEAN_ANOMALY":274.7088,"EPHEMERIS_TYPE":0,"CLASSIFICATION_TYPE":"U","NORAD_CAT_ID":52536,"ELEMENT_SET_NO":999,"REV_AT_EPOCH":21036,"BSTAR":9.1036e-5,"MEAN_MOTION_DOT":1.162e-5,"MEAN_MOTION_DDOT":0},{"OBJECT_NAME":"STARLINK-3897","OBJECT_ID":"2022-051E","EPOCH":"2026-03-02T15:54:31.213728","MEAN_MOTION":15.08836421,"ECCENTRICITY":0.0001416,"INCLINATION":53.217,"RA_OF_ASC_NODE":160.4739,"ARG_OF_PERICENTER":82.6452,"MEAN_ANOMALY":277.4701,"EPHEMERIS_TYPE":0,"CLASSIFICATION_TYPE":"U","NORAD_CAT_ID":52537,"ELEMENT_SET_NO":999,"REV_AT_EPOCH":21038,"BSTAR":-2.8804e-5,"MEAN_MOTION_DOT":-7.46e-6,"MEAN_MOTION_DDOT":0},{"OBJECT_NAME":"STARLINK-3933","OBJECT_ID":"2022-051F","EPOCH":"2026-03-02T12:59:40.466976","MEAN_MOTION":15.08836545,"ECCENTRICITY":0.00012119,"INCLINATION":53.217,"RA_OF_ASC_NODE":161.2117,"ARG_OF_PERICENTER":92.5425,"MEAN_ANOMALY":267.5705,"EPHEMERIS_TYPE":0,"CLASSIFICATION_TYPE":"U","NORAD_CAT_ID":52538,"ELEMENT_SET_NO":999,"REV_AT_EPOCH":21036,"BSTAR":1.6012556e-5,"MEAN_MOTION_DOT":-3.3e-7,"MEAN_MOTION_DDOT":0},{"OBJECT_NAME":"STARLINK-3757","OBJECT_ID":"2022-051G","EPOCH":"2026-03-02T16:15:43.750944","MEAN_MOTION":15.08857798,"ECCENTRICITY":0.0001272,"INCLINATION":53.2165,"RA_OF_ASC_NODE":160.5992,"ARG_OF_PERICENTER":93.6808,"MEAN_ANOMALY":266.433,"EPHEMERIS_TYPE":0,"CLASSIFICATION_TYPE":"U","NORAD_CAT_ID":52539,"ELEMENT_SET_NO":999,"REV_AT_EPOCH":21038,"BSTAR":0.00030868,"MEAN_MOTION_DOT":4.631e-5,"MEAN_MOTION_DDOT":0},{"OBJECT_NAME":"STARLINK-3940","OBJECT_ID":"2022-051H","EPOCH":"2026-03-02T12:49:04.871424","MEAN_MOTION":15.08838571,"ECCENTRICITY":0.00012506,"INCLINATION":53.2164,"RA_OF_ASC_NODE":161.2848,"ARG_OF_PERICENTER":89.419,"MEAN_ANOMALY":270.6946,"EPHEMERIS_TYPE":0,"CLASSIFICATION_TYPE":"U","NORAD_CAT_ID":52540,"ELEMENT_SET_NO":999,"REV_AT_EPOCH":21036,"BSTAR":6.2853609e-5,"MEAN_MOTION_DOT":7.13e-6,"MEAN_MOTION_DDOT":0},{"OBJECT_NAME":"STARLINK-3845","OBJECT_ID":"2022-051J","EPOCH":"2026-03-02T13:33:27.447264","MEAN_MOTION":15.08836429,"ECCENTRICITY":0.0001227,"INCLINATION":53.2169,"RA_OF_ASC_NODE":166.1068,"ARG_OF_PERICENTER":84.5815,"MEAN_ANOMALY":275.5318,"EPHEMERIS_TYPE":0,"CLASSIFICATION_TYPE":"U","NORAD_CAT_ID":52541,"ELEMENT_SET_NO":999,"REV_AT_EPOCH":21029,"BSTAR":-3.0676e-5,"MEAN_MOTION_DOT":-7.76e-6,"MEAN_MOTION_DDOT":0},{"OBJECT_NAME":"STARLINK-3937","OBJECT_ID":"2022-051K","EPOCH":"2026-03-02T14:13:51.907296","MEAN_MOTION":15.08829631,"ECCENTRICITY":0.0001606,"INCLINATION":53.2171,"RA_OF_ASC_NODE":160.9821,"ARG_OF_PERICENTER":86.5721,"MEAN_ANOMALY":273.5455,"EPHEMERIS_TYPE":0,"CLASSIFICATION_TYPE":"U","NORAD_CAT_ID":52542,"ELEMENT_SET_NO":999,"REV_AT_EPOCH":21037,"BSTAR":-8.7582e-5,"MEAN_MOTION_DOT":-1.681e-5,"MEAN_MOTION_DDOT":0},{"OBJECT_NAME":"STARLINK-3926","OBJECT_ID":"2022-051L","EPOCH":"2026-03-02T14:29:45.482496","MEAN_MOTION":15.08842043,"ECCENTRICITY":0.0001182,"INCLINATION":53.2171,"RA_OF_ASC_NODE":160.9301,"ARG_OF_PERICENTER":92.1736,"MEAN_ANOMALY":267.9392,"EPHEMERIS_TYPE":0,"CLASSIFICATION_TYPE":"U","NORAD_CAT_ID":52543,"ELEMENT_SET_NO":999,"REV_AT_EPOCH":21037,"BSTAR":1.3812e-6,"MEAN_MOTION_DOT":-2.66e-6,"MEAN_MOTION_DDOT":0},{"OBJECT_NAME":"STARLINK-3944","OBJECT_ID":"2022-051M","EPOCH":"2026-03-02T16:33:37.130112","MEAN_MOTION":15.08847112,"ECCENTRICITY":0.0001437,"INCLINATION":53.2167,"RA_OF_ASC_NODE":165.5555,"ARG_OF_PERICENTER":94.7189,"MEAN_ANOMALY":265.3967,"EPHEMERIS_TYPE":0,"CLASSIFICATION_TYPE":"U","NORAD_CAT_ID":52544,"ELEMENT_SET_NO":999,"REV_AT_EPOCH":21031,"BSTAR":5.9895e-5,"MEAN_MOTION_DOT":6.66e-6,"MEAN_MOTION_DDOT":0},{"OBJECT_NAME":"STARLINK-3948","OBJECT_ID":"2022-051P","EPOCH":"2026-03-02T13:32:48.235488","MEAN_MOTION":15.08846588,"ECCENTRICITY":0.0001233,"INCLINATION":53.217,"RA_OF_ASC_NODE":160.8747,"ARG_OF_PERICENTER":90.8434,"MEAN_ANOMALY":269.2699,"EPHEMERIS_TYPE":0,"CLASSIFICATION_TYPE":"U","NORAD_CAT_ID":52546,"ELEMENT_SET_NO":999,"REV_AT_EPOCH":21037,"BSTAR":-0.0002384,"MEAN_MOTION_DOT":-4.081e-5,"MEAN_MOTION_DDOT":0},{"OBJECT_NAME":"STARLINK-3931","OBJECT_ID":"2022-051R","EPOCH":"2026-03-02T15:17:27.480768","MEAN_MOTION":15.08831516,"ECCENTRICITY":0.0001295,"INCLINATION":53.217,"RA_OF_ASC_NODE":160.781,"ARG_OF_PERICENTER":98.9854,"MEAN_ANOMALY":261.1284,"EPHEMERIS_TYPE":0,"CLASSIFICATION_TYPE":"U","NORAD_CAT_ID":52548,"ELEMENT_SET_NO":999,"REV_AT_EPOCH":21038,"BSTAR":-2.6348e-5,"MEAN_MOTION_DOT":-7.07e-6,"MEAN_MOTION_DDOT":0},{"OBJECT_NAME":"STARLINK-3935","OBJECT_ID":"2022-051S","EPOCH":"2026-03-02T14:08:34.344960","MEAN_MOTION":15.08840651,"ECCENTRICITY":0.0001231,"INCLINATION":53.2172,"RA_OF_ASC_NODE":160.9979,"ARG_OF_PERICENTER":88.7504,"MEAN_ANOMALY":271.3629,"EPHEMERIS_TYPE":0,"CLASSIFICATION_TYPE":"U","NORAD_CAT_ID":52549,"ELEMENT_SET_NO":999,"REV_AT_EPOCH":21037,"BSTAR":0.00034626,"MEAN_MOTION_DOT":5.227e-5,"MEAN_MOTION_DDOT":0}]
